# Made by eph2tle, compiled Apr 15 2019 17:44:10
# Run at Sun May  5 12:23:33 2019
#
#    The following TLEs (Two-Line Elements) were generated by fitting
# a numerically-integrated ephemeris,  based on the orbit given below,
# to the SDP4/SGP4 models.  Each TLE is good for the interval between
# its epoch and the epoch of the subsequent TLE (usually one day).
# The maximum deviation between the numerically integrated ephemerides
# and the TLE-based ephemeris, in kilometers,  is given for each TLE
# as the "worst residual".
#
#    This fitting is done using the 'eph2tle' code packaged with Find_Orb.
# The code has details on how the TLEs were computed :
#
#    https://github.com/Bill-Gray/find_orb/eph2tle.cpp
#
#    Be warned:  the error given is that between the numerically
# integrated ephems and the TLE model.  There will usually be at
# least some additional difference between the ephems and the actual
# motion of the satellite,  especially if the ephemerides are based
# on a short arc.  (And in this case,  the object has notoriously
# strong non-gravitational forces that are,  at least thus far,
# unpredictable,  resulting in it having appeared on NEOCP seventeen
# times as of 8 April 2019.  This object is an "empty trash bag
# object" for which predictions are usually poor.)
#
#   You can usually find the underlying observational data,  and the
# fitted orbit,  residuals,  ephemerides,  and sometimes some comments
# about the object,  among the pages listed at
#
#    https://www.projectpluto.com/pluto/mpecs/pseudo.htm
#
#    Also,  if you use a TLE outside the "correct" time range (between
# its MJD and that of the next TLE),  all bets are off.  I've carefully
# computed and minimized the worst error over the "correct" time frame,
# but the ephemeris may (or may not) diverge wildly outside of it.
#
# Ephem range: 58484.000000 58849.000000 1.000000
# Created Sun May  5 12:20:42 2019
# Ephemeris start:  1 Jan 2019  0:00:00
# Ephemeris end:    1 Jan 2020  0:00:00
# Times are all TDT
# Positions/velocities are in equatorial J2000
#   (Orbit used for TLEs before May 1)
# Orbital elements:  C05GHG1 = C04W5Q1 = C073CX1
#    Perigee 2019 Apr 14.237226 +/- 5.48e-5 TT =  5:41:36 (JD 2458587.737226)
# A1: 1.55e-5 +/- 5.5e-9   A2: -1.3e-6 +/- 2.06e-9   A3: -1.92e-6 +/- 1.42e-9 AU/day^2
# Epoch 2019 Apr 15.0 TT = JDT 2458588.5                        Find_Orb
# M 123.65712714 +/- 0.009            (J2000 equator)
# n 162.11506612 +/- 0.000863         Peri.   39.19434 +/- 0.006
# a 71898.7358 +/- 0.255              Node   342.63441 +/- 0.0051
# e   0.7496317 +/- 1.28e-5           Incl.   28.36689 +/- 0.00011
# P3197.67m/2.221d           H 32.7   G  0.15   U  8.0
# q 18001.1618 +/- 0.879    Q 125796.309 +/- 1.27
# 36 of 71 observations 2019 Apr. 6-May 5; mean residual 1".91
#
#   (Orbit used for TLEs after May 1,  to include A10e88r obs)
#
# Orbital elements:  C05GHG1 = C04W5Q1 = C073CX1
#    Perigee 2019 Apr 20.936557 +/- 0.000744 TT = 22:28:38 (JD 2458594.436557)
# A1: 1.51e-5 +/- 4.74e-8   A2: -1.18e-6 +/- 7.94e-9   A3: -1.87e-6 +/- 7.62e-9 AU/day^2
# Epoch 2019 Apr 20.0 TT = JDT 2458593.5                        Gray
# M 208.3595845895 +/- 0.11           (J2000 equator)
# n 161.9125572263 +/- 0.00864        Peri.   43.8810140 +/- 0.045
# a 71958.673933 +/- 2.56             Node   342.0674981 +/- 0.024
# e   0.753276324 +/- 8.48e-5         Incl.   28.0697158 +/- 0.0009
# P3201.67m/2.223d           H 32.6   G  0.15   U  9.6
# q 17753.908541 +/- 6.08    Q 126163.43932 +/- 7.84
# 28 of 74 observations 2019 Apr. 7-June 3; mean residual 17".232
#
# 1 NoradU COSPAR   Epoch.epoch     dn/dt/2  d2n/dt2/6 BSTAR    T El# C
# 2 NoradU Inclina RAAscNode Eccent  ArgPeri MeanAno  MeanMotion Rev# C

# Worst residual: 201.27 km
# MJD 58484.000000 (2019 Jan  1  0:00)
C05GHG1 = C04W5Q1 = C073CX1
1 89983U 00000AAQ 19001.49919926  .00000000  00000-0  00000-0 0  4903
2 89983 025.8987 353.4740 6723592 281.5531 047.7904 00.45577409    05

# Worst residual: 112.64 km
# MJD 58485.000000 (2019 Jan  2  0:00)
C05GHG1 = C04W5Q1 = C073CX1
1 89983U 00000AAQ 19002.49919926  .00000000  00000-0  00000-0 0  4904
2 89983 025.8806 352.9812 6693469 283.1551 207.1544 00.44782514    04

# Worst residual: 126.48 km
# MJD 58486.000000 (2019 Jan  3  0:00)
C05GHG1 = C04W5Q1 = C073CX1
1 89983U 00000AAQ 19003.49919926  .00000000  00000-0  00000-0 0  4905
2 89983 025.9744 352.7030 6709401 284.5899 008.0752 00.45850170    04

# Worst residual: 118.45 km
# MJD 58487.000000 (2019 Jan  4  0:00)
C05GHG1 = C04W5Q1 = C073CX1
1 89983U 00000AAQ 19004.49919926  .00000000  00000-0  00000-0 0  4906
2 89983 025.9502 352.3717 6689292 286.0861 168.6386 00.44783590    01

# Worst residual: 214.42 km
# MJD 58488.000000 (2019 Jan  5  0:00)
C05GHG1 = C04W5Q1 = C073CX1
1 89983U 00000AAQ 19005.49919926  .00000000  00000-0  00000-0 0  4907
2 89983 026.0500 351.9846 6718460 287.5656 328.3105 00.45563301    08

# Worst residual: 113.47 km
# MJD 58489.000000 (2019 Jan  6  0:00)
C05GHG1 = C04W5Q1 = C073CX1
1 89983U 00000AAQ 19006.49919926  .00000000  00000-0  00000-0 0  4908
2 89983 026.0347 351.7816 6692026 288.9663 130.1139 00.44873488    09

# Worst residual: 129.56 km
# MJD 58490.000000 (2019 Jan  7  0:00)
C05GHG1 = C04W5Q1 = C073CX1
1 89983U 00000AAQ 19007.49919926  .00000000  00000-0  00000-0 0  4909
2 89983 026.1254 351.3238 6703957 290.1534 289.3503 00.45082558    02

# Worst residual: 102.87 km
# MJD 58491.000000 (2019 Jan  8  0:00)
C05GHG1 = C04W5Q1 = C073CX1
1 89983U 00000AAQ 19008.49919926  .00000000  00000-0  00000-0 0  4900
2 89983 026.1425 351.1937 6700885 291.8211 091.3620 00.45043501    09

# Worst residual: 119.58 km
# MJD 58492.000000 (2019 Jan  9  0:00)
C05GHG1 = C04W5Q1 = C073CX1
1 89983U 00000AAQ 19009.49919926  .00000000  00000-0  00000-0 0  4901
2 89983 026.2084 350.7183 6692896 293.0041 250.5204 00.44894593    07

# Worst residual: 181.85 km
# MJD 58493.000000 (2019 Jan 10  0:00)
C05GHG1 = C04W5Q1 = C073CX1
1 89983U 00000AAQ 19010.49919926  .00000000  00000-0  00000-0 0  4903
2 89983 026.2684 350.5902 6717601 294.3716 052.6164 00.45521096    07

# Worst residual: 119.13 km
# MJD 58494.000000 (2019 Jan 11  0:00)
C05GHG1 = C04W5Q1 = C073CX1
1 89983U 00000AAQ 19011.49919926  .00000000  00000-0  00000-0 0  4904
2 89983 026.3030 350.1714 6687550 295.8595 211.9571 00.44797356    05

# Worst residual: 134.13 km
# MJD 58495.000000 (2019 Jan 12  0:00)
C05GHG1 = C04W5Q1 = C073CX1
1 89983U 00000AAQ 19012.49919926  .00000000  00000-0  00000-0 0  4905
2 89983 026.4050 349.9825 6703247 297.2222 013.0664 00.45874638    06

# Worst residual: 113.78 km
# MJD 58496.000000 (2019 Jan 13  0:00)
C05GHG1 = C04W5Q1 = C073CX1
1 89983U 00000AAQ 19013.49919926  .00000000  00000-0  00000-0 0  4906
2 89983 026.4126 349.6639 6686977 298.7045 173.4759 00.44792075    08

# Worst residual: 218.66 km
# MJD 58497.000000 (2019 Jan 14  0:00)
C05GHG1 = C04W5Q1 = C073CX1
1 89983U 00000AAQ 19014.49919926  .00000000  00000-0  00000-0 0  4907
2 89983 026.5345 349.3856 6712698 300.1368 333.2514 00.45652213    01

# Worst residual: 110.45 km
# MJD 58498.000000 (2019 Jan 15  0:00)
C05GHG1 = C04W5Q1 = C073CX1
1 89983U 00000AAQ 19015.49919926  .00000000  00000-0  00000-0 0  4908
2 89983 026.5352 349.1852 6692287 301.4959 134.9724 00.44871741    01

# Worst residual: 138.27 km
# MJD 58499.000000 (2019 Jan 16  0:00)
C05GHG1 = C04W5Q1 = C073CX1
1 89983U 00000AAQ 19016.49919926  .00000000  00000-0  00000-0 0  4909
2 89983 026.6462 348.8470 6709837 302.5870 294.3559 00.45134161    06

# Worst residual: 98.05 km
# MJD 58500.000000 (2019 Jan 17  0:00)
C05GHG1 = C04W5Q1 = C073CX1
1 89983U 00000AAQ 19017.49919926  .00000000  00000-0  00000-0 0  4900
2 89983 026.6715 348.7298 6702836 304.2295 096.3307 00.45005891    04

# Worst residual: 108.37 km
# MJD 58501.000000 (2019 Jan 18  0:00)
C05GHG1 = C04W5Q1 = C073CX1
1 89983U 00000AAQ 19018.49919926  .00000000  00000-0  00000-0 0  4901
2 89983 026.7786 348.3224 6704949 305.3333 255.4679 00.44929018    05

# Worst residual: 167.25 km
# MJD 58502.000000 (2019 Jan 19  0:00)
C05GHG1 = C04W5Q1 = C073CX1
1 89983U 00000AAQ 19019.49919926  .00000000  00000-0  00000-0 0  4902
2 89983 026.8343 348.2334 6732682 306.7069 057.6715 00.45454533    01

# Worst residual: 122.58 km
# MJD 58503.000000 (2019 Jan 20  0:00)
C05GHG1 = C04W5Q1 = C073CX1
1 89983U 00000AAQ 19020.49919926  .00000000  00000-0  00000-0 0  4904
2 89983 026.9061 347.8719 6707520 308.1540 216.6769 00.44793078    09

# Worst residual: 141.83 km
# MJD 58504.000000 (2019 Jan 21  0:00)
C05GHG1 = C04W5Q1 = C073CX1
1 89983U 00000AAQ 19021.49919926  .00000000  00000-0  00000-0 0  4905
2 89983 027.0064 347.7576 6732223 309.4776 017.9834 00.45853345    07

# Worst residual: 112.86 km
# MJD 58505.000000 (2019 Jan 22  0:00)
C05GHG1 = C04W5Q1 = C073CX1
1 89983U 00000AAQ 19022.49919926  .00000000  00000-0  00000-0 0  4906
2 89983 027.0389 347.4927 6710226 310.9437 178.1654 00.44776287    02

# Worst residual: 202.66 km
# MJD 58506.000000 (2019 Jan 23  0:00)
C05GHG1 = C04W5Q1 = C073CX1
1 89983U 00000AAQ 19023.49919926  .00000000  00000-0  00000-0 0  4907
2 89983 027.1542 347.3300 6734824 312.3334 337.9126 00.45709797    02

# Worst residual: 98.79 km
# MJD 58507.000000 (2019 Jan 24  0:00)
C05GHG1 = C04W5Q1 = C073CX1
1 89983U 00000AAQ 19024.49919926  .00000000  00000-0  00000-0 0  4908
2 89983 027.1688 347.1551 6714565 313.6406 139.5750 00.44863892    08

# Worst residual: 137.75 km
# MJD 58508.000000 (2019 Jan 25  0:00)
C05GHG1 = C04W5Q1 = C073CX1
1 89983U 00000AAQ 19025.49919926  .00000000  00000-0  00000-0 0  4909
2 89983 027.2889 346.9328 6735980 314.6967 298.9486 00.45218599    03

# Worst residual: 89.21 km
# MJD 58509.000000 (2019 Jan 26  0:00)
C05GHG1 = C04W5Q1 = C073CX1
1 89983U 00000AAQ 19026.49919926  .00000000  00000-0  00000-0 0  4900
2 89983 027.3119 346.8360 6725244 316.2381 101.0039 00.44998106    01
